format  = 'OEF2.0'       ! file format
rectype = 'ML'           ! record type (1L/ML)
refsys  = ECLM J2000     ! default reference system
END_OF_HEADER
2022OB5
! Keplerian elements: a, e, i, long. node, arg. peric., mean anomaly
 KEP   1.0088199810054714E+00  5.8593341916141808E-02   2.0599781391032 302.6856493105631 105.7080782884594  3.3406138612130985E+02
 MJD     60600.000000000 TDT
 MAG  28.813  0.150
! Non-gravitational parameters: model used, number of model parameters, dimension
 LSP   0  0    6
! PERIHELION   9.4970984692658189E-01
! APHELION   1.0679301150843603E+00
! ANODE   6.5000303171540126E-03
! DNODE   6.6491005734343198E-03
! MOID   3.6703277072839889E-03
! PERIOD   3.7009987635676049E+02
! PHA F
! VINFTY     2.0396462903870
! U_PAR 4.0
! ORB_TYPE Apollo
! RMS    1.54019E-06   3.37885E-06   2.52551E-04   1.70437E-03   2.55040E-03   2.32866E-03
 COV   2.372181619805195E-12  5.184561356100753E-12  3.887755709013494E-10
 COV   2.623340882901175E-09 -3.927838141277448E-09 -3.586065550274490E-09
 COV   1.141660480598333E-11  8.517071217049702E-10  5.750990724645152E-09
 COV  -8.576343949021238E-09 -7.848552424260153E-09  6.378207690331209E-08
 COV   4.304107011819618E-07 -6.435563961746892E-07 -5.880256191167535E-07
 COV   2.904892412255057E-06 -4.342110988469157E-06 -3.968142415683946E-06
 COV   6.504554121408674E-06  5.936733812629100E-06  5.422676851323900E-06
 COR   1.000000000000000E+00  9.962528257225026E-01  9.994835969482515E-01
 COR   9.993456654460544E-01 -9.999328794731562E-01 -9.998558529235523E-01
 COR   9.999999999999999E-01  9.980963475358117E-01  9.986404590093775E-01
 COR  -9.952333944108563E-01 -9.975030153470278E-01  1.000000000000000E+00
 COR   9.999279455579899E-01 -9.991449940550478E-01 -9.998619858385595E-01
 COR   1.000000000000000E+00 -9.989117653447538E-01 -9.998051329225822E-01
 COR   9.999999999999998E-01  9.996131222200630E-01  1.000000000000000E+00
